[
  {
    "OBJECT_NAME": "STARLINK-6031",
    "OBJECT_ID": "2023-078AV",
    "EPOCH": "2024-05-21T04:26:37.655520",
    "MEAN_MOTION": 14.98362907,
    "ECCENTRICITY": 0.0003439,
    "INCLINATION": 69.9987,
    "RA_OF_ASC_NODE": 202.2073,
    "ARG_OF_PERICENTER": 270.6373,
    "MEAN_ANOMALY": 89.4392,
    "EPHEMERIS_TYPE": 0,
    "CLASSIFICATION_TYPE": "U",
    "NORAD_CAT_ID": 56810,
    "ELEMENT_SET_NO": 999,
    "REV_AT_EPOCH": 5445,
    "BSTAR": -0.0005933,
    "MEAN_MOTION_DOT": -7.171e-5,
    "MEAN_MOTION_DDOT": 0
  },
  {
    "OBJECT_NAME": "STARLINK-6063",
    "OBJECT_ID": "2023-078AW",
    "EPOCH": "2024-05-21T04:43:58.963872",
    "MEAN_MOTION": 14.98326193,
    "ECCENTRICITY": 0.0002669,
    "INCLINATION": 69.9989,
    "RA_OF_ASC_NODE": 162.097,
    "ARG_OF_PERICENTER": 267.9672,
    "MEAN_ANOMALY": 92.1181,
    "EPHEMERIS_TYPE": 0,
    "CLASSIFICATION_TYPE": "U",
    "NORAD_CAT_ID": 56811,
    "ELEMENT_SET_NO": 999,
    "REV_AT_EPOCH": 5544,
    "BSTAR": 0.00013474,
    "MEAN_MOTION_DOT": 1.515e-5,
    "MEAN_MOTION_DDOT": 0
  },
  {
    "OBJECT_NAME": "STARLINK-6065",
    "OBJECT_ID": "2023-078AX",
    "EPOCH": "2024-05-21T05:14:35.868480",
    "MEAN_MOTION": 14.98323241,
    "ECCENTRICITY": 0.0002919,
    "INCLINATION": 69.9994,
    "RA_OF_ASC_NODE": 182.0597,
    "ARG_OF_PERICENTER": 271.4865,
    "MEAN_ANOMALY": 88.5959,
    "EPHEMERIS_TYPE": 0,
    "CLASSIFICATION_TYPE": "U",
    "NORAD_CAT_ID": 56812,
    "ELEMENT_SET_NO": 999,
    "REV_AT_EPOCH": 5495,
    "BSTAR": 7.3014e-5,
    "MEAN_MOTION_DOT": 7.78e-6,
    "MEAN_MOTION_DDOT": 0
  },
  {
    "OBJECT_NAME": "STARLINK-6056",
    "OBJECT_ID": "2023-078AY",
    "EPOCH": "2024-05-21T03:56:48.984576",
    "MEAN_MOTION": 14.98319332,
    "ECCENTRICITY": 0.0002569,
    "INCLINATION": 70.0025,
    "RA_OF_ASC_NODE": 202.138,
    "ARG_OF_PERICENTER": 247.0823,
    "MEAN_ANOMALY": 113.0065,
    "EPHEMERIS_TYPE": 0,
    "CLASSIFICATION_TYPE": "U",
    "NORAD_CAT_ID": 56813,
    "ELEMENT_SET_NO": 999,
    "REV_AT_EPOCH": 5445,
    "BSTAR": 0.00023036,
    "MEAN_MOTION_DOT": 2.656e-5,
    "MEAN_MOTION_DDOT": 0
  },
  {
    "OBJECT_NAME": "STARLINK-6059",
    "OBJECT_ID": "2023-078AZ",
    "EPOCH": "2024-05-21T04:08:35.966400",
    "MEAN_MOTION": 14.98322476,
    "ECCENTRICITY": 0.0002759,
    "INCLINATION": 70.0016,
    "RA_OF_ASC_NODE": 202.1669,
    "ARG_OF_PERICENTER": 251.0342,
    "MEAN_ANOMALY": 109.0518,
    "EPHEMERIS_TYPE": 0,
    "CLASSIFICATION_TYPE": "U",
    "NORAD_CAT_ID": 56814,
    "ELEMENT_SET_NO": 999,
    "REV_AT_EPOCH": 5445,
    "BSTAR": 0.00020331,
    "MEAN_MOTION_DOT": 2.333e-5,
    "MEAN_MOTION_DDOT": 0
  },
  {
    "OBJECT_NAME": "STARLINK-6057",
    "OBJECT_ID": "2023-078BA",
    "EPOCH": "2024-05-21T04:44:40.310592",
    "MEAN_MOTION": 14.98325756,
    "ECCENTRICITY": 0.0003271,
    "INCLINATION": 69.9999,
    "RA_OF_ASC_NODE": 202.3556,
    "ARG_OF_PERICENTER": 267.0097,
    "MEAN_ANOMALY": 93.0688,
    "EPHEMERIS_TYPE": 0,
    "CLASSIFICATION_TYPE": "U",
    "NORAD_CAT_ID": 56815,
    "ELEMENT_SET_NO": 999,
    "REV_AT_EPOCH": 5445,
    "BSTAR": 0.00011985,
    "MEAN_MOTION_DOT": 1.337e-5,
    "MEAN_MOTION_DDOT": 0
  },
  {
    "OBJECT_NAME": "STARLINK-6067",
    "OBJECT_ID": "2023-078BB",
    "EPOCH": "2024-05-20T12:54:58.766688",
    "MEAN_MOTION": 14.98330761,
    "ECCENTRICITY": 0.0003142,
    "INCLINATION": 69.9991,
    "RA_OF_ASC_NODE": 183.6943,
    "ARG_OF_PERICENTER": 270.5397,
    "MEAN_ANOMALY": 89.5402,
    "EPHEMERIS_TYPE": 0,
    "CLASSIFICATION_TYPE": "U",
    "NORAD_CAT_ID": 56816,
    "ELEMENT_SET_NO": 999,
    "REV_AT_EPOCH": 5485,
    "BSTAR": 0.00016501,
    "MEAN_MOTION_DOT": 1.876e-5,
    "MEAN_MOTION_DDOT": 0
  },
  {
    "OBJECT_NAME": "STARLINK-5982",
    "OBJECT_ID": "2023-078BC",
    "EPOCH": "2024-05-21T04:20:37.247424",
    "MEAN_MOTION": 14.98322059,
    "ECCENTRICITY": 0.0002396,
    "INCLINATION": 70.0023,
    "RA_OF_ASC_NODE": 202.1962,
    "ARG_OF_PERICENTER": 254.7392,
    "MEAN_ANOMALY": 105.3502,
    "EPHEMERIS_TYPE": 0,
    "CLASSIFICATION_TYPE": "U",
    "NORAD_CAT_ID": 56817,
    "ELEMENT_SET_NO": 999,
    "REV_AT_EPOCH": 5445,
    "BSTAR": 0.00018318,
    "MEAN_MOTION_DOT": 2.093e-5,
    "MEAN_MOTION_DDOT": 0
  },
  {
    "OBJECT_NAME": "STARLINK-6028",
    "OBJECT_ID": "2023-078BD",
    "EPOCH": "2024-05-20T13:31:21.456192",
    "MEAN_MOTION": 14.98337403,
    "ECCENTRICITY": 0.0002546,
    "INCLINATION": 70.0009,
    "RA_OF_ASC_NODE": 203.6506,
    "ARG_OF_PERICENTER": 258.7238,
    "MEAN_ANOMALY": 101.3635,
    "EPHEMERIS_TYPE": 0,
    "CLASSIFICATION_TYPE": "U",
    "NORAD_CAT_ID": 56818,
    "ELEMENT_SET_NO": 999,
    "REV_AT_EPOCH": 5479,
    "BSTAR": 0.00022125,
    "MEAN_MOTION_DOT": 2.548e-5,
    "MEAN_MOTION_DDOT": 0
  },
  {
    "OBJECT_NAME": "STARLINK-30119",
    "OBJECT_ID": "2023-079A",
    "EPOCH": "2024-05-20T21:32:10.675392",
    "MEAN_MOTION": 15.02544391,
    "ECCENTRICITY": 0.0001323,
    "INCLINATION": 43.0032,
    "RA_OF_ASC_NODE": 81.776,
    "ARG_OF_PERICENTER": 270.6615,
    "MEAN_ANOMALY": 89.4076,
    "EPHEMERIS_TYPE": 0,
    "CLASSIFICATION_TYPE": "U",
    "NORAD_CAT_ID": 56823,
    "ELEMENT_SET_NO": 999,
    "REV_AT_EPOCH": 5360,
    "BSTAR": 0.00072616,
    "MEAN_MOTION_DOT": 9.621e-5,
    "MEAN_MOTION_DDOT": 0
  },
  {
    "OBJECT_NAME": "STARLINK-30120",
    "OBJECT_ID": "2023-079B",
    "EPOCH": "2024-05-20T21:27:21.782304",
    "MEAN_MOTION": 15.02536004,
    "ECCENTRICITY": 8.81e-5,
    "INCLINATION": 43.0016,
    "RA_OF_ASC_NODE": 81.7525,
    "ARG_OF_PERICENTER": 226.2306,
    "MEAN_ANOMALY": 133.8463,
    "EPHEMERIS_TYPE": 0,
    "CLASSIFICATION_TYPE": "U",
    "NORAD_CAT_ID": 56824,
    "ELEMENT_SET_NO": 999,
    "REV_AT_EPOCH": 5361,
    "BSTAR": 0.0002685,
    "MEAN_MOTION_DOT": 3.425e-5,
    "MEAN_MOTION_DDOT": 0
  },
  {
    "OBJECT_NAME": "STARLINK-30084",
    "OBJECT_ID": "2023-079C",
    "EPOCH": "2024-05-20T21:22:34.293216",
    "MEAN_MOTION": 15.02540737,
    "ECCENTRICITY": 0.0001052,
    "INCLINATION": 43.0005,
    "RA_OF_ASC_NODE": 81.7272,
    "ARG_OF_PERICENTER": 267.8991,
    "MEAN_ANOMALY": 92.173,
    "EPHEMERIS_TYPE": 0,
    "CLASSIFICATION_TYPE": "U",
    "NORAD_CAT_ID": 56825,
    "ELEMENT_SET_NO": 999,
    "REV_AT_EPOCH": 5360,
    "BSTAR": 0.00046915,
    "MEAN_MOTION_DOT": 6.14e-5,
    "MEAN_MOTION_DDOT": 0
  },
  {
    "OBJECT_NAME": "STARLINK-30114",
    "OBJECT_ID": "2023-079D",
    "EPOCH": "2024-05-20T20:10:47.475264",
    "MEAN_MOTION": 15.02543032,
    "ECCENTRICITY": 0.0001249,
    "INCLINATION": 43.003,
    "RA_OF_ASC_NODE": 82.0245,
    "ARG_OF_PERICENTER": 257.3662,
    "MEAN_ANOMALY": 102.7041,
    "EPHEMERIS_TYPE": 0,
    "CLASSIFICATION_TYPE": "U",
    "NORAD_CAT_ID": 56826,
    "ELEMENT_SET_NO": 999,
    "REV_AT_EPOCH": 5360,
    "BSTAR": 0.00052548,
    "MEAN_MOTION_DOT": 6.903e-5,
    "MEAN_MOTION_DDOT": 0
  },
  {
    "OBJECT_NAME": "STARLINK-30151",
    "OBJECT_ID": "2023-079E",
    "EPOCH": "2024-05-21T03:35:53.854368",
    "MEAN_MOTION": 15.02572368,
    "ECCENTRICITY": 0.0001114,
    "INCLINATION": 43.0032,
    "RA_OF_ASC_NODE": 80.2198,
    "ARG_OF_PERICENTER": 271.1168,
    "MEAN_ANOMALY": 88.9547,
    "EPHEMERIS_TYPE": 0,
    "CLASSIFICATION_TYPE": "U",
    "NORAD_CAT_ID": 56827,
    "ELEMENT_SET_NO": 999,
    "REV_AT_EPOCH": 5364,
    "BSTAR": 0.0012156,
    "MEAN_MOTION_DOT": 0.00016271,
    "MEAN_MOTION_DDOT": 0
  },
  {
    "OBJECT_NAME": "STARLINK-30152",
    "OBJECT_ID": "2023-079F",
    "EPOCH": "2024-05-21T05:06:49.044960",
    "MEAN_MOTION": 15.02550045,
    "ECCENTRICITY": 0.0001377,
    "INCLINATION": 43.004,
    "RA_OF_ASC_NODE": 79.8491,
    "ARG_OF_PERICENTER": 257.5052,
    "MEAN_ANOMALY": 102.5637,
    "EPHEMERIS_TYPE": 0,
    "CLASSIFICATION_TYPE": "U",
    "NORAD_CAT_ID": 56828,
    "ELEMENT_SET_NO": 999,
    "REV_AT_EPOCH": 5365,
    "BSTAR": 0.00013691,
    "MEAN_MOTION_DOT": 1.647e-5,
    "MEAN_MOTION_DDOT": 0
  },
  {
    "OBJECT_NAME": "STARLINK-30128",
    "OBJECT_ID": "2023-079K",
    "EPOCH": "2024-05-20T18:51:44.186976",
    "MEAN_MOTION": 15.02527363,
    "ECCENTRICITY": 0.0001199,
    "INCLINATION": 43.0011,
    "RA_OF_ASC_NODE": 56.2333,
    "ARG_OF_PERICENTER": 273.8689,
    "MEAN_ANOMALY": 86.2016,
    "EPHEMERIS_TYPE": 0,
    "CLASSIFICATION_TYPE": "U",
    "NORAD_CAT_ID": 56832,
    "ELEMENT_SET_NO": 999,
    "REV_AT_EPOCH": 5388,
    "BSTAR": -0.00020438,
    "MEAN_MOTION_DOT": -2.963e-5,
    "MEAN_MOTION_DDOT": 0
  },
  {
    "OBJECT_NAME": "STARLINK-30131",
    "OBJECT_ID": "2023-079L",
    "EPOCH": "2024-05-20T18:35:46.941504",
    "MEAN_MOTION": 15.02513772,
    "ECCENTRICITY": 0.0001386,
    "INCLINATION": 43.002,
    "RA_OF_ASC_NODE": 56.3189,
    "ARG_OF_PERICENTER": 263.6332,
    "MEAN_ANOMALY": 96.4352,
    "EPHEMERIS_TYPE": 0,
    "CLASSIFICATION_TYPE": "U",
    "NORAD_CAT_ID": 56833,
    "ELEMENT_SET_NO": 999,
    "REV_AT_EPOCH": 5389,
    "BSTAR": 0.00017659,
    "MEAN_MOTION_DOT": 2.181e-5,
    "MEAN_MOTION_DDOT": 0
  },
  {
    "OBJECT_NAME": "STARLINK-30069",
    "OBJECT_ID": "2023-079M",
    "EPOCH": "2024-05-21T05:01:59.733696",
    "MEAN_MOTION": 15.0253634,
    "ECCENTRICITY": 0.0001378,
    "INCLINATION": 43.0034,
    "RA_OF_ASC_NODE": 79.818,
    "ARG_OF_PERICENTER": 246.2552,
    "MEAN_ANOMALY": 113.8146,
    "EPHEMERIS_TYPE": 0,
    "CLASSIFICATION_TYPE": "U",
    "NORAD_CAT_ID": 56834,
    "ELEMENT_SET_NO": 999,
    "REV_AT_EPOCH": 5366,
    "BSTAR": 0.00061928,
    "MEAN_MOTION_DOT": 8.172e-5,
    "MEAN_MOTION_DDOT": 0
  }
]